Pharmacy Name,Type of Location,Address and Phone Number,Address,Phone Number
H-E-B Pharmacy,Pharmacy,"San Antonio, TX · (210) 341-3875","San Antonio, TX ", (210) 341-3875
Walgreens Pharmacy,Pharmacy,"San Antonio, TX · (210) 424-3644","San Antonio, TX ", (210) 424-3644
Walgreens Pharmacy,Pharmacy,2425 Thousand Oaks Dr · (210) 402-2927,2425 Thousand Oaks Dr , (210) 402-2927
H-E-B Specialty Pharmacy Business Office,Pharmacy,(877) 432-9355,(877) 432-9355,(877) 432-9355
Walgreens Pharmacy,Pharmacy,6901 San Pedro Ave · (210) 349-9809,6901 San Pedro Ave , (210) 349-9809
CVS Pharmacy,Pharmacy,15607 Chase Hill Blvd · (210) 877-8353,15607 Chase Hill Blvd , (210) 877-8353
CVS Pharmacy,Pharmacy,22135 I-10 · (210) 698-1643,22135 I-10 , (210) 698-1643
Walgreens Pharmacy,Pharmacy,10003 W Loop 1604 N · (210) 688-0405,10003 W Loop 1604 N , (210) 688-0405
CVS Pharmacy,Pharmacy,5975 Old Pearsall Rd · (210) 623-6645,5975 Old Pearsall Rd , (210) 623-6645
White Cross Professional Pharmacy,Pharmacy,1303 McCullough Ave # 128 · In Metropolitan Professional Building · (210) 227-7207,1303 McCullough Ave # 128 , In Metropolitan Professional Building 
Walgreens Pharmacy,Pharmacy,410 W Cypress St · (210) 225-4809,410 W Cypress St , (210) 225-4809
Smart Pharmacy,Pharmacy,4390 Callaghan Rd · In Callaghan Square · (210) 858-7299,4390 Callaghan Rd , In Callaghan Square 
Oakdell Pharmacy,Pharmacy,7220 Louis Pasteur Dr · In Med Center Pointe · (210) 614-6200,7220 Louis Pasteur Dr , In Med Center Pointe 
Walgreens Pharmacy,Pharmacy,4703 W Commerce St · (210) 434-5566,4703 W Commerce St , (210) 434-5566
Good Life Pharmacy,Pharmacy,26108 Overlook Pkwy · In The Shops At Overlook · (210) 819-4515,26108 Overlook Pkwy , In The Shops At Overlook 
CBK Pharmacy,Pharmacy,1303 McCullough Ave # 128 · In Metropolitan Professional Building · (210) 227-7207,1303 McCullough Ave # 128 , In Metropolitan Professional Building 
Walgreens Pharmacy,Pharmacy,300 E Houston St · (210) 424-3462,300 E Houston St , (210) 424-3462
CVS Pharmacy,Pharmacy,300 E Commerce St · (210) 228-9483,300 E Commerce St , (210) 228-9483
CVS Pharmacy,Pharmacy,14900 Jones Maltsberger Rd · (210) 496-9545,14900 Jones Maltsberger Rd , (210) 496-9545
Walgreens Pharmacy,Pharmacy,5760 Walzem Rd · (210) 657-7071,5760 Walzem Rd , (210) 657-7071
Lackland AFB Satellite Pharmacy,Pharmacy,(210) 292-8410,(210) 292-8410,(210) 292-8410
Avita Pharmacy 1029,Pharmacy,303 N Frio St #102 · (210) 231-0383,303 N Frio St #102 , (210) 231-0383
H-E-B Pharmacy,Pharmacy,"San Antonio, TX · (210) 637-0033","San Antonio, TX ", (210) 637-0033
Walgreens,Drug store,"San Antonio, TX · (210) 481-9138","San Antonio, TX ", (210) 481-9138
Walgreens Pharmacy,Pharmacy,901 Bitters Rd · (210) 496-1313,901 Bitters Rd , (210) 496-1313
Empire Pharmacy Inc,Pharmacy,2207 S Zarzamora St · (210) 223-3863,2207 S Zarzamora St , (210) 223-3863
CVS Pharmacy,Pharmacy,4805 Medical Dr · (210) 616-0482,4805 Medical Dr , (210) 616-0482
Davila Pharmacy Inc.,Pharmacy,1423 Guadalupe St · (210) 226-5293,1423 Guadalupe St , (210) 226-5293
Walgreens Pharmacy,Pharmacy,12020 Culebra Rd · (210) 762-3040,12020 Culebra Rd , (210) 762-3040
Medical Center Pharmacy,Pharmacy,1342 Fair Ave · (210) 534-5457,1342 Fair Ave , (210) 534-5457
15RX Pharmacy-2,Pharmacy,11212 Texas 151 Access Rd #110 · (210) 543-1579,11212 Texas 151 Access Rd #110 , (210) 543-1579
Pharmacy Unlimited,Pharmacy,12801 Wetmore Rd · (210) 536-0141,12801 Wetmore Rd , (210) 536-0141
South San Pharmacy,Pharmacy,919 SW Military Dr · (210) 922-1816,919 SW Military Dr , (210) 922-1816
Genoa Healthcare,Pharmacy,8535 Tom Slick #104 · (210) 610-9091,8535 Tom Slick #104 , (210) 610-9091
Stone Oak Pharmacy,Pharmacy,18866 Stone Oak Pkwy #101 · In Stoneterra · (210) 494-4272,18866 Stone Oak Pkwy #101 , In Stoneterra 
Broadway Pharmacy,Pharmacy,6100 Broadway · (210) 824-3322,6100 Broadway , (210) 824-3322
Walgreens Pharmacy,Pharmacy,2200 E Houston St · (210) 354-3993,2200 E Houston St , (210) 354-3993
15RX Pharmacy-4,Pharmacy,215 N San Saba Ste.103 · In South Texas Renal Care Group · (210) 684-1579 ext. 4,215 N San Saba Ste.103 , In South Texas Renal Care Group 
Carvajal Pharmacy,Pharmacy,3410 Roosevelt Ave · (210) 922-2176,3410 Roosevelt Ave , (210) 922-2176
CVS Pharmacy y más,Pharmacy,6539 De Zavala Rd · (210) 561-1325,6539 De Zavala Rd , (210) 561-1325
Glendale Pharmacy,Pharmacy,4203 Gardendale #223c · In Fairways Corporate Center · (210) 617-5507,4203 Gardendale #223c , In Fairways Corporate Center 
Advanced Pharmacy Services,Pharmacy,5423 Hamilton Wolfe · (210) 558-8054,5423 Hamilton Wolfe , (210) 558-8054
SYNERGY PHARMACY,Pharmacy,1314 E Sonterra Blvd STE 2102 · In Villages On Sonterra III · (210) 704-1551,1314 E Sonterra Blvd STE 2102 , In Villages On Sonterra III 
St Rose Pharmacy,Pharmacy,2829 Babcock Rd · (210) 692-7726,2829 Babcock Rd , (210) 692-7726
H-E-B Pharmacy,Pharmacy,"San Antonio, TX · (210) 408-8145","San Antonio, TX ", (210) 408-8145
CVS Pharmacy,Pharmacy,"San Antonio, TX · (210) 359-1429","San Antonio, TX ", (210) 359-1429
CF Pharmacy,Pharmacy,4203 Gardendale Ste 223c · In Fairways Corporate Center,4203 Gardendale Ste 223c , In Fairways Corporate Center
CVS Pharmacy y más,Pharmacy,4730 Fredericksburg Rd · (210) 348-8223,4730 Fredericksburg Rd , (210) 348-8223
Brooke Army Medical Center Pharmacy,Pharmacy,"78234, 3551 Roger Brooke Dr · In Brooke Army Medical Center · (210) 916-1536","78234, 3551 Roger Brooke Dr ", In Brooke Army Medical Center 
Champs Pharmacy,Pharmacy,7718 Louis Pasteur Dr · (210) 614-1212,7718 Louis Pasteur Dr , (210) 614-1212
Health Professional Pharmacy,Pharmacy,818 Brooklyn Ave,818 Brooklyn Ave,818 Brooklyn Ave
Shavano Oaks Pharmacy,Pharmacy,3603 Paesanos Pkwy Ste 102 · (210) 448-9080,3603 Paesanos Pkwy Ste 102 , (210) 448-9080
Walmart Pharmacy,Pharmacy,8538 Interstate 35 Access Rd · (210) 810-3686,8538 Interstate 35 Access Rd , (210) 810-3686
Dms Pharmacy,Pharmacy,305 E Euclid Ave · (210) 229-9336,305 E Euclid Ave , (210) 229-9336
Walgreens Pharmacy,Pharmacy,10411 West Ave · (210) 979-6575,10411 West Ave , (210) 979-6575
CVS Pharmacy,Pharmacy,1915 Broadway Suite 101 · (210) 806-8741,1915 Broadway Suite 101 , (210) 806-8741
Rx Square Pharmacy,Pharmacy,9018 Culebra Rd Suite 101 · (210) 781-4101,9018 Culebra Rd Suite 101 , (210) 781-4101
CHCS Pharmacy,Pharmacy,5372 Fredericksburg Rd · (210) 971-5803,5372 Fredericksburg Rd , (210) 971-5803
Pharmerica,Pharmacy,3019 Interstate Dr · (210) 227-5262,3019 Interstate Dr , (210) 227-5262
Oak Hills Specialt Pharmacy,Pharmacy,7711 Louis Pasteur Dr · (855) 200-7055,7711 Louis Pasteur Dr , (855) 200-7055
HAVE Medical Pharmacy,Pharmacy,818 Brooklyn Ave · (210) 433-5400,818 Brooklyn Ave , (210) 433-5400
D US PHARMACY,Pharmacy,2556 MacArthur View · In Macarthur · (888) 985-2138,2556 MacArthur View , In Macarthur 
Rite-Away Pharmacy & Medical Supply,Pharmacy,426 Castroville Rd · (210) 433-9991,426 Castroville Rd , (210) 433-9991
H-E-B Pharmacy,Pharmacy,1150 TX-1604 Loop · (210) 408-8145,1150 TX-1604 Loop , (210) 408-8145
Walmart Pharmacy,Pharmacy,1603 Vance Jackson Rd · (210) 737-0754,1603 Vance Jackson Rd , (210) 737-0754
Health Professionals Pharmacy,Pharmacy,102 Babcock Rd # C102,102 Babcock Rd # C102,102 Babcock Rd # C102
H-E-B plus!,Grocery store,"Schertz, TX · (210) 651-5105","Schertz, TX ", (210) 651-5105
Walgreens,Drug store,"San Antonio, TX · (210) 496-1313","San Antonio, TX ", (210) 496-1313
Health Professionals Pharmacy,Pharmacy,102 Babcock Rd # C102,102 Babcock Rd # C102,102 Babcock Rd # C102
Economical Pharmacy Services,Pharmacy,4030 Culebra Rd,4030 Culebra Rd,4030 Culebra Rd
CVS Pharmacy,Pharmacy,9050 FM1560 · (210) 688-9160,9050 FM1560 , (210) 688-9160
Farmacia Associates Of San Antonio Inc.,Pharmacy,919 SW Military Dr Ste 105 · (210) 922-1816,919 SW Military Dr Ste 105 , (210) 922-1816
CVS Pharmacy y más,Pharmacy,7603 Culebra Rd · (210) 680-0299,7603 Culebra Rd , (210) 680-0299
Advanced Pharmacy,Pharmacy,3935 Medical Dr · (210) 615-6884,3935 Medical Dr , (210) 615-6884
Medfusion Pharmacy,Pharmacy,8812 Broadway ste a · (210) 263-9076,8812 Broadway ste a , (210) 263-9076
Fort Sam Houston Community Pharmacy,Pharmacy,2401 Winfield Scott Rd · In Fort Sam Houston Exchange · (210) 295-9371,2401 Winfield Scott Rd , In Fort Sam Houston Exchange 
Alamo City Pharmacy,Pharmacy,3338 Oakwell Ct #106 · In OakWell Medical Office Bldg · (210) 598-2688,3338 Oakwell Ct #106 , In OakWell Medical Office Bldg 
Drug Store,Pharmacy,West Ave · In H-E-B,West Ave , In H-E-B
Pioneer Pharmacy,Pharmacy,4505 De Zavala Rd,4505 De Zavala Rd,4505 De Zavala Rd
Rx PLUS PHARMACY,Pharmacy,4615 W Commerce St · (210) 646-0207,4615 W Commerce St , (210) 646-0207
Texas Best Pharmacy,Pharmacy,1919 Rogers Rd Suite 103 · (210) 314-8018,1919 Rogers Rd Suite 103 , (210) 314-8018
H-E-B Pharmacy,Pharmacy,8300 Floyd Curl Dr Ste 105 · (210) 593-0291,8300 Floyd Curl Dr Ste 105 , (210) 593-0291
Walgreens Pharmacy,Pharmacy,25215 I-10 · (210) 698-2540,25215 I-10 , (210) 698-2540
The Mix Pharmacy Compounding & CBD,Pharmacy,14369 Blanco Rd · In Cadillac Plaza · (210) 226-1112,14369 Blanco Rd , In Cadillac Plaza 
Shavano Oaks Pharmacy @ Westover Hills,Pharmacy,3903 Wiseman Blvd #313 · In Westover Hills Baptist Medical Bldg · (210) 441-4501,3903 Wiseman Blvd #313 , In Westover Hills Baptist Medical Bldg 
CVS Pharmacy,Pharmacy,919 Wurzbach Pkwy · (210) 764-1095,919 Wurzbach Pkwy , (210) 764-1095
Hill's Drug Store,Pharmacy,705 Kirk Pl · (210) 225-7283,705 Kirk Pl , (210) 225-7283
Q Pharmacy,Pharmacy,7622 Louis Pasteur Dr · In WellMed at Medical Center · (210) 491-8137,7622 Louis Pasteur Dr , In WellMed at Medical Center 
H-E-B plus!,SponsoredGrocery store,"Lytle, TX · (830) 772-5021","Lytle, TX ", (830) 772-5021
Walgreens,Drug store,"San Antonio, TX · (210) 424-3617","San Antonio, TX ", (210) 424-3617
Westover Hills Pharmacy,Pharmacy,9793 Culebra Rd #101 · (210) 684-1800,9793 Culebra Rd #101 , (210) 684-1800
Health Talk,Pharmacy,7550 I-10 · In Lincoln Center · (210) 377-2647,7550 I-10 , In Lincoln Center 
Heb Pharmacy 427,Pharmacy,735 SE Military Dr · (512) 324-4930,735 SE Military Dr , (512) 324-4930
MedTerm,Pharmacy,410 San Pedro Ave · (210) 220-3926,410 San Pedro Ave , (210) 220-3926
Oak Hills Medical Building Pharmacy Inc,Pharmacy,7711 Louis Pasteur Dr · (855) 277-8798,7711 Louis Pasteur Dr , (855) 277-8798
Q Pharmacy,Pharmacy,8303 Military Dr W # B · In WellMed at Westlakes · (210) 491-8168,8303 Military Dr W # B , In WellMed at Westlakes 
CVS Pharmacy,Pharmacy,5301 Alamo Ranch Pkwy · (210) 688-9311,5301 Alamo Ranch Pkwy , (210) 688-9311
Gulf Coast Pharmacy,Pharmacy,4115 Medical Dr · In The Park On Medical · (210) 616-0135,4115 Medical Dr , In The Park On Medical 
"Michael D. Hamilton, DPH",Pharmacy,3019 Interstate Dr · (800) 274-4590,3019 Interstate Dr , (800) 274-4590
Pharmacy,Pharmacy,5355 W Loop 1604 N · In Alamo Ranch,5355 W Loop 1604 N , In Alamo Ranch
Drive-Thru Pharmacy,Pharmacy,"San Antonio, TX · (210) 404-9006","San Antonio, TX ", (210) 404-9006
Lifecare Garza Pharmacy,Pharmacy,311 Camden St # 103 · In Madison Medical Building · (210) 225-4561,311 Camden St # 103 , In Madison Medical Building 
PrimeCare Pharmacy & Medical Supply,Pharmacy,14032 Nacogdoches Rd · (210) 530-4269,14032 Nacogdoches Rd , (210) 530-4269
CVS Pharmacy,Pharmacy,3027 Nacogdoches Rd · (210) 824-5928,3027 Nacogdoches Rd , (210) 824-5928
CVS Pharmacy y más,Pharmacy,9140 Guilbeau Rd · (210) 520-5183,9140 Guilbeau Rd , (210) 520-5183
H-E-B Pharmacy,Pharmacy,6818 S Zarzamora St · (210) 927-4596,6818 S Zarzamora St , (210) 927-4596
CVS Pharmacy,Pharmacy,3227 SE Military Dr · In Target · (210) 247-0083,3227 SE Military Dr , In Target 
ASP Cares,Pharmacy,8627 Cinnamon Creek Dr building 100 ste b · (210) 598-2678,8627 Cinnamon Creek Dr building 100 ste b , (210) 598-2678
Rite Away Pharmacy & Med Supplies,Pharmacy,2235 Thousand Oaks Dr #102 · In Parkwood Place · (210) 490-2733,2235 Thousand Oaks Dr #102 , In Parkwood Place 
Rite-Away Pharmacy & Medical Supply # 2,Pharmacy,2716 SW Military Dr #102 · In Alison's Corner Shopping Center · (210) 927-3742,2716 SW Military Dr #102 , In Alison's Corner Shopping Center 
H-E-B plus!,SponsoredGrocery store,"Schertz, TX · (210) 651-5105","Schertz, TX ", (210) 651-5105
Walgreens,Drug store,"San Antonio, TX · (210) 821-6992","San Antonio, TX ", (210) 821-6992
MedPlus Pharmacy,Pharmacy,7220 Louis Pasteur Dr Ste 152 · (210) 868-6440,7220 Louis Pasteur Dr Ste 152 , (210) 868-6440
H-E-B Pharmacy,Pharmacy,10660 FM471 · (210) 684-1234,10660 FM471 , (210) 684-1234
CVS Pharmacy,Pharmacy,13343 Culebra Rd · (210) 507-5641,13343 Culebra Rd , (210) 507-5641
MLDP of Texas LP,Pharmacy,6601 Blanco Rd · (210) 434-2477,6601 Blanco Rd , (210) 434-2477
Walgreens Pharmacy,Pharmacy,26482 US-281 · (830) 438-7866,26482 US-281 , (830) 438-7866
Q Pharmacy,Pharmacy,7333 Barlite Blvd · (210) 491-8160,7333 Barlite Blvd , (210) 491-8160
Cvs Caremark,Pharmacy,6950 Alamo Downs Pkwy #110 · (210) 706-2200,6950 Alamo Downs Pkwy #110 , (210) 706-2200
Integrated Pharmacy,Pharmacy,1919 Oakwell Farms Pkwy · In Oakwell Farms Parkway · (210) 824-5144,1919 Oakwell Farms Pkwy , In Oakwell Farms Parkway 
H-E-B Pharmacy,Pharmacy,300 W Olmos Dr · (210) 829-1705,300 W Olmos Dr , (210) 829-1705
Costco Pharmacy,Pharmacy,1201 N Loop 1604 E · (210) 403-4703,1201 N Loop 1604 E , (210) 403-4703
CVS,Drug store,4805 Medical Dr · (210) 616-0482,4805 Medical Dr , (210) 616-0482
Physicians Plaza Pharmacy,Pharmacy,8042 Wurzbach Rd # 130 · (210) 614-5491,8042 Wurzbach Rd # 130 , (210) 614-5491
H-E-B Pharmacy,Pharmacy,415 N New Braunfels Ave · (210) 226-8642,415 N New Braunfels Ave , (210) 226-8642
CVS,Drug store,6470 N New Braunfels Ave · In Sunset Ridge Shopping Center · (210) 826-2391,6470 N New Braunfels Ave , In Sunset Ridge Shopping Center 
"Mark C. Granberry, PharmD",Pharmacy,"4301 Broadway Street, San Antonio, TX 78209 · (210) 805-3025","4301 Broadway Street, San Antonio, TX 78209 ", (210) 805-3025
The Care Clinic Pharmacy,Pharmacy,818 E Grayson St Suite B · (800) 687-5875,818 E Grayson St Suite B , (800) 687-5875
Rx Drive Thru Pharmacy,Pharmacy,5910 Babcock Rd,5910 Babcock Rd,5910 Babcock Rd
CVS,Drug store,1915 Broadway Suite 101 · (210) 806-8741,1915 Broadway Suite 101 , (210) 806-8741
Sam's Club Pharmacy,Pharmacy,12349 I-35 · (210) 599-1505,12349 I-35 , (210) 599-1505
H-E-B Pharmacy,Pharmacy,20935 U.S. Hwy 281 N · (210) 491-2450,20935 U.S. Hwy 281 N , (210) 491-2450
Walgreens,Drug store,"San Antonio, TX · (210) 732-1621","San Antonio, TX ", (210) 732-1621
H-E-B plus!,Grocery store,"San Antonio, TX · (210) 681-2250","San Antonio, TX ", (210) 681-2250
Walgreens,Drug store,12352 FM1957 · (210) 679-0130,12352 FM1957 , (210) 679-0130
Walgreens,Drug store,25215 I-10 · (210) 698-2540,25215 I-10 , (210) 698-2540
CVS,Drug store,22135 I-10 · (210) 698-1643,22135 I-10 , (210) 698-1643
"Maria T. Gutierrez, RPH",Pharmacy,7400 Merton Minter · (210) 617-5300,7400 Merton Minter , (210) 617-5300
"Mario's Pharmacy, Inc",Pharmacy,2515 Broadway · (325) 236-6883,2515 Broadway , (325) 236-6883
CVS,Pharmacy,7034 Alamo Downs Pkwy · (210) 706-2222,7034 Alamo Downs Pkwy , (210) 706-2222
CVS,Drug store,300 E Commerce St · (210) 228-9483,300 E Commerce St , (210) 228-9483
Walgreens,Drug store,7802 Wurzbach Rd · (210) 614-3590,7802 Wurzbach Rd , (210) 614-3590
CVS,Drug store,16580 Huebner Rd · (210) 479-8173,16580 Huebner Rd , (210) 479-8173
CVS,Drug store,2018 Culebra Rd · (210) 785-9764,2018 Culebra Rd , (210) 785-9764
CVS,Drug store,4730 Fredericksburg Rd · (210) 348-8223,4730 Fredericksburg Rd , (210) 348-8223
CVS,Drug store,7208 Farm-To-Market Rd 78 · (210) 666-0162,7208 Farm-To-Market Rd 78 , (210) 666-0162
CVS,Drug store,9686 Marbach Rd · (210) 645-6933,9686 Marbach Rd , (210) 645-6933
Walgreens Pharmacy,Pharmacy,14505 NW Military Hwy · (210) 408-1019,14505 NW Military Hwy , (210) 408-1019
Walgreens,Drug store,2425 Thousand Oaks Dr · (210) 402-2927,2425 Thousand Oaks Dr , (210) 402-2927
Hofmann Prudence O,Pharmacy,7400 Merton Minter · (210) 617-5300,7400 Merton Minter , (210) 617-5300
RX Systems,Pharmacy,"San Antonio, TX · In Grandview Shopping Center","San Antonio, TX ", In Grandview Shopping Center
CVS,Drug store,23530 Wilderness Oak · (210) 481-7642,23530 Wilderness Oak , (210) 481-7642
CVS,Drug store,8602 Huebner Rd · (210) 691-0174,8602 Huebner Rd , (210) 691-0174
CVS,Drug store,211 Losoya St · Near the Alamo Mission in San Antonio · (210) 224-9293,211 Losoya St , Near the Alamo Mission in San Antonio 
H-E-B Pharmacy,Pharmacy,"San Antonio, TX · (210) 681-2301","San Antonio, TX ", (210) 681-2301
Walgreens,Drug store,"Schertz, TX · (210) 566-3245","Schertz, TX ", (210) 566-3245
CVS,Drug store,120 E Sonterra Blvd · In Stoneterra · (210) 404-9006,120 E Sonterra Blvd , In Stoneterra 
CVS,Drug store,7603 Culebra Rd · (210) 680-0299,7603 Culebra Rd , (210) 680-0299
CVS,Drug store,13343 Culebra Rd · (210) 507-5641,13343 Culebra Rd , (210) 507-5641
CVS,Drug store,3027 Nacogdoches Rd · (210) 824-5928,3027 Nacogdoches Rd , (210) 824-5928
Walgreens,Drug store,3030 Goliad Rd · (210) 359-6949,3030 Goliad Rd , (210) 359-6949
CVS,Drug store,19202 Blanco Rd · (210) 497-2845,19202 Blanco Rd , (210) 497-2845
CVS,Drug store,5301 Alamo Ranch Pkwy · (210) 688-9311,5301 Alamo Ranch Pkwy , (210) 688-9311
Walgreens,Drug store,3326 Fredericksburg Rd · (210) 732-1621,3326 Fredericksburg Rd , (210) 732-1621
CVS,Drug store,14900 Jones Maltsberger Rd · (210) 496-9545,14900 Jones Maltsberger Rd , (210) 496-9545
Mission Pharmacal,Medical supply store,1325 E César E. Chávez Blvd · (830) 249-9822,1325 E César E. Chávez Blvd , (830) 249-9822
CVS,Drug store,9838 Potranco Rd · (210) 509-0319,9838 Potranco Rd , (210) 509-0319
CVS,Drug store,15038 Nacogdoches Rd · (210) 646-7045,15038 Nacogdoches Rd , (210) 646-7045
Walgreens,Drug store,7655 Tezel Rd · In Northwest Crossing Shopping Center · (210) 543-9151,7655 Tezel Rd , In Northwest Crossing Shopping Center 
Walgreens,Drug store,6901 San Pedro Ave · (210) 349-9809,6901 San Pedro Ave , (210) 349-9809
Walgreens,Drug store,300 E Houston St · (210) 424-3462,300 E Houston St , (210) 424-3462
CVS,Drug store,10225 Wurzbach Rd · (210) 690-1616,10225 Wurzbach Rd , (210) 690-1616
Lackland AFB Clinic Pharmacy,Pharmacy,"Lackland AFB, TX · (210) 292-7970","Lackland AFB, TX ", (210) 292-7970
Lackland AFB Satellite Pharmacy,Pharmacy,"Lackland AFB, TX · In Lackland Main Exchange · (210) 292-7970","Lackland AFB, TX ", In Lackland Main Exchange 
CVS,Drug store,103 SW Military Dr · (210) 927-6755,103 SW Military Dr , (210) 927-6755
Walgreens,Drug store,4703 W Commerce St · In Crosstowne Mercado · (210) 434-5566,4703 W Commerce St , In Crosstowne Mercado 
H-E-B plus!,Grocery store,"San Antonio, TX · (210) 673-4900","San Antonio, TX ", (210) 673-4900
Walgreens,Drug store,"San Antonio, TX · (210) 679-5267","San Antonio, TX ", (210) 679-5267
Walgreens,Drug store,3401 San Pedro Ave · (210) 738-2414,3401 San Pedro Ave , (210) 738-2414
CVS,Drug store,919 Wurzbach Pkwy · (210) 764-1095,919 Wurzbach Pkwy , (210) 764-1095
CVS,Drug store,17307 Bulverde Rd · (210) 404-9054,17307 Bulverde Rd , (210) 404-9054
Walgreens,Drug store,13619 Babcock Rd · (210) 424-3617,13619 Babcock Rd , (210) 424-3617
Walgreens,Drug store,7019 S Zarzamora St · (210) 932-0138,7019 S Zarzamora St , (210) 932-0138
CVS,Drug store,9050 FM1560 · (210) 688-9160,9050 FM1560 , (210) 688-9160
CVS,Drug store,4100 De Zavala Rd · (210) 492-9741,4100 De Zavala Rd , (210) 492-9741
Walgreens,Drug store,138 SW Military Dr · (210) 924-6582,138 SW Military Dr , (210) 924-6582
CVS,Drug store,6539 De Zavala Rd · (210) 561-1325,6539 De Zavala Rd , (210) 561-1325
Walgreens,Drug store,11103 Military Dr W · (210) 679-5267,11103 Military Dr W , (210) 679-5267
Walgreens,Drug store,6393 Babcock Rd · (210) 690-9025,6393 Babcock Rd , (210) 690-9025
Walgreens,Drug store,6635 Bandera Rd · (210) 681-8540,6635 Bandera Rd , (210) 681-8540
Walgreens,Drug store,2200 E Houston St · (210) 354-3993,2200 E Houston St , (210) 354-3993
CVS,Drug store,3502 SE Military Dr · (210) 359-0139,3502 SE Military Dr , (210) 359-0139
CVS,Drug store,2920 E Southcross · (210) 532-3923,2920 E Southcross , (210) 532-3923
Walgreens,Drug store,410 W Cypress St · (210) 225-4809,410 W Cypress St , (210) 225-4809
Walgreens,Drug store,19203 Stone Oak Pkwy · (210) 403-0002,19203 Stone Oak Pkwy , (210) 403-0002
"Wayne C. Cheatum, R",Pharmacy,"Lackland AFB, TX","Lackland AFB, TX","Lackland AFB, TX"
Walgreens,Drug store,22114 Bulverde Rd · (210) 481-2517,22114 Bulverde Rd , (210) 481-2517
Walgreens,Drug store,10718 Bandera Rd · (210) 682-1181,10718 Bandera Rd , (210) 682-1181
CVS Pharmacy,Pharmacy,"San Antonio, TX · (210) 202-3579","San Antonio, TX ", (210) 202-3579
H-E-B plus!,Grocery store,"San Antonio, TX · (210) 408-1641","San Antonio, TX ", (210) 408-1641
CVS,Drug store,2801 Nogalitos St · (210) 921-2090,2801 Nogalitos St , (210) 921-2090
Walgreens,Drug store,1560 Bandera Rd · (210) 432-7334,1560 Bandera Rd , (210) 432-7334
Walgreens,Drug store,10718 Bandera Rd · (210) 682-1181,10718 Bandera Rd , (210) 682-1181
Walgreens,Drug store,1902 N Loop 1604 W · (210) 492-5095,1902 N Loop 1604 W , (210) 492-5095
Walgreens,Drug store,3065 Rigsby Ave · (210) 337-4282,3065 Rigsby Ave , (210) 337-4282
Walgreens,Drug store,20800 US-281 · (210) 497-5473,20800 US-281 , (210) 497-5473
Walgreens,Drug store,22114 Bulverde Rd · (210) 481-2517,22114 Bulverde Rd , (210) 481-2517
CVS,Drug store,1118 S WW White Rd · (210) 359-1429,1118 S WW White Rd , (210) 359-1429
CVS,Drug store,9140 Guilbeau Rd · (210) 520-5183,9140 Guilbeau Rd , (210) 520-5183
Walgreens,Drug store,7103 Marbach Rd · (210) 675-6612,7103 Marbach Rd , (210) 675-6612
CVS,Drug store,12835 Potranco Rd · (210) 679-0250,12835 Potranco Rd , (210) 679-0250
CVS,Drug store,22202 Bulverde Rd · In The Shops At Fossil Creek · (210) 497-0353,22202 Bulverde Rd , In The Shops At Fossil Creek 
Walgreens,Drug store,9903 Potranco Rd · (210) 682-7431,9903 Potranco Rd , (210) 682-7431
CVS,Drug store,9285 Culebra Rd · (210) 521-5335,9285 Culebra Rd , (210) 521-5335
Walgreens,Drug store,6017 Ingram Rd · (210) 680-2962,6017 Ingram Rd , (210) 680-2962
CVS,Drug store,8731 Poteet Jourdanton Fwy Acc Rd · (210) 927-8200,8731 Poteet Jourdanton Fwy Acc Rd , (210) 927-8200
Mission Pharmacal Co,Pharmaceutical company,10999 I-10 · In City view · (210) 696-8400,10999 I-10 , In City view 
Walgreens,Drug store,9080 Marbach Rd · (210) 673-3082,9080 Marbach Rd , (210) 673-3082
Walgreens,Drug store,502 New Valley Hi Dr · (210) 673-0817,502 New Valley Hi Dr , (210) 673-0817
CVS,Drug store,5975 Old Pearsall Rd · (210) 623-6645,5975 Old Pearsall Rd , (210) 623-6645
CVS,Drug store,"San Antonio, TX · (210) 679-0250","San Antonio, TX ", (210) 679-0250
H-E-B Pharmacy,Pharmacy,"San Antonio, TX · (210) 491-9976","San Antonio, TX ", (210) 491-9976
Walgreens,Drug store,2710 Nogalitos St · (210) 533-7773,2710 Nogalitos St , (210) 533-7773
Coram Healthcare,Medical supply store,10118 Huebner Rd · (210) 523-0125,10118 Huebner Rd , (210) 523-0125
Walgreens,Drug store,901 Bitters Rd · (210) 496-1313,901 Bitters Rd , (210) 496-1313
Walgreens,Drug store,8202 Culebra Rd · (210) 543-8419,8202 Culebra Rd , (210) 543-8419
Walgreens,Drug store,10003 W Loop 1604 N · (210) 688-0405,10003 W Loop 1604 N , (210) 688-0405
Walgreens,Drug store,1581 Austin Hwy · (210) 930-3302,1581 Austin Hwy , (210) 930-3302
Omnicare - San Antonio,Software company,12460 Network Blvd · In Network Tech · (361) 299-1058,12460 Network Blvd , In Network Tech 
Walmart Pharmacy,Pharmacy,"Universal City, TX · (210) 536-8546","Universal City, TX ", (210) 536-8546
CentroMed South Park Medical,Pharmacy,6315 S Zarzamora St · (210) 922-7000,6315 S Zarzamora St , (210) 922-7000
DRUG Enforcement Administration,Pharmacy,10127 Morocco St #200 · (210) 442-5600,10127 Morocco St #200 , (210) 442-5600
Diabetes & Glandular Disease Clinic,Pharmacy,5107 Medical Dr · (210) 614-8612,5107 Medical Dr , (210) 614-8612
Champs Medical,Pharmacy,7718 Louis Pasteur Dr · (210) 547-2340,7718 Louis Pasteur Dr , (210) 547-2340
CVS,Drug store,"Balcones Heights, TX · In Target · (210) 280-0001","Balcones Heights, TX ", In Target 
CVS,Drug store,"Converse, TX · (210) 566-3615","Converse, TX ", (210) 566-3615
CVS,Drug store,"Alamo Heights, TX · (210) 824-1679","Alamo Heights, TX ", (210) 824-1679
H-E-B plus!,Grocery store,9238 N Loop 1604 W · In HEB Crossing · (210) 682-0165,9238 N Loop 1604 W , In HEB Crossing 
Feik School of Pharmacy,University,"Feik School of Pharmacy, 703 E Hildebrand Ave · (210) 883-1000","Feik School of Pharmacy, 703 E Hildebrand Ave ", (210) 883-1000
Walgreens Pharmacy,Pharmacy,"New Braunfels, TX · (830) 626-3364","New Braunfels, TX ", (830) 626-3364
H-E-B,Grocery store,2130 Culebra Rd · (210) 737-1027,2130 Culebra Rd , (210) 737-1027
CVS,Drug store,"Castle Hills, TX · (210) 341-1487","Castle Hills, TX ", (210) 341-1487
H-E-B plus!,Grocery store,"San Antonio, TX · (210) 408-1641","San Antonio, TX ", (210) 408-1641
CVS Pharmacy,Pharmacy,"San Antonio, TX · (210) 877-8353","San Antonio, TX ", (210) 877-8353
CVS,Drug store,"Helotes, TX · In Helotes Plaza · (210) 372-0386","Helotes, TX ", In Helotes Plaza 
Walgreens,Drug store,"Converse, TX · (210) 662-7764","Converse, TX ", (210) 662-7764
H-E-B,Grocery store,15000 San Pedro Ave · (210) 494-3501,15000 San Pedro Ave , (210) 494-3501
H-E-B plus!,Grocery store,10718 Potranco Rd · (210) 681-2250,10718 Potranco Rd , (210) 681-2250
Costco Wholesale #693,Warehouse store,1201 N Loop 1604 E · (210) 403-4703,1201 N Loop 1604 E , (210) 403-4703
Walmart Supercenter,Department store,5025 Northwest Loop 410 · (210) 523-1091,5025 Northwest Loop 410 , (210) 523-1091
H-E-B,Grocery store,516 S Flores St · (210) 444-1879,516 S Flores St , (210) 444-1879
H-E-B,Grocery store,8503 NW Military Hwy · In Alon Town Center · (210) 479-4300,8503 NW Military Hwy , In Alon Town Center 
Costco Wholesale,Warehouse store,5611 UTSA Boulevard · (210) 200-2050,5611 UTSA Boulevard , (210) 200-2050
H-E-B,Grocery store,6000 West Ave · (210) 341-7289,6000 West Ave , (210) 341-7289
Walmart Supercenter,Department store,8500 Jones Maltsberger Rd · (210) 377-1899,8500 Jones Maltsberger Rd , (210) 377-1899
Spring Branch Pharmacy,Pharmacy,"Spring Branch, TX · In The Shops At Faithville Park · (830) 885-7770","Spring Branch, TX ", In The Shops At Faithville Park 
Christi Rankin,Pharmacy,"Pleasanton, TX · (830) 281-8190","Pleasanton, TX ", (830) 281-8190
"Emergency Pet Clinic San Antonio, A Thrive Pet Healthcare Partner",Emergency veterinarian service,8503 Broadway # 105 · (210) 469-7509,8503 Broadway # 105 , (210) 469-7509
Thrive Pet Healthcare,Veterinarian,1211 Austin Hwy Suite 108 Ste 108 · In Terrell Plaza · (210) 742-9508,1211 Austin Hwy Suite 108 Ste 108 , In Terrell Plaza 
Walmart Supercenter,Department store,8923 Military Dr W · (210) 675-5092,8923 Military Dr W , (210) 675-5092
Walmart Supercenter,Department store,12639 Blanco Rd · (210) 591-6282,12639 Blanco Rd , (210) 591-6282
CommuniCare Health Centers - Northwest Clinic,Pharmacy,8210 Callaghan Rd · (210) 233-7000,8210 Callaghan Rd , (210) 233-7000
Walmart Supercenter,Department store,1200 SE Military Dr · (210) 921-0800,1200 SE Military Dr , (210) 921-0800
"Perrin-410 Animal Hospital, A Thrive Pet Healthcare Partner",Veterinarian,8365 Perrin Beitel · In River Oaks Shopping Center · (210) 650-3141,8365 Perrin Beitel , In River Oaks Shopping Center 
H-E-B plus!,Grocery store,"San Antonio, TX · (210) 673-4900","San Antonio, TX ", (210) 673-4900
CVS Pharmacy,Pharmacy,"Helotes, TX · (210) 372-0386","Helotes, TX ", (210) 372-0386
Walmart Neighborhood Market,Grocery store,4226 De Zavala Rd · (210) 774-2734,4226 De Zavala Rd , (210) 774-2734
CVS,Drug store,"Universal City, TX · (210) 658-8011","Universal City, TX ", (210) 658-8011
St. Francis of Assisi Veterinary Medical Center,Veterinarian,8615 Potranco Rd · (210) 509-8500,8615 Potranco Rd , (210) 509-8500
Dr. Dmitiry Buyanov,Medical laboratory,2425 Babcock Rd #108 · In Medical Center Plaza · (210) 298-9004,2425 Babcock Rd #108 , In Medical Center Plaza 
H-E-B Headquarters,Corporate office,646 S Flores St · (210) 938-8000,646 S Flores St , (210) 938-8000
Walmart Supercenter,Department store,918 Bandera Rd · (210) 536-0576,918 Bandera Rd , (210) 536-0576
Walmart Neighborhood Market,Grocery store,1515 S Ellison Dr · (210) 276-2012,1515 S Ellison Dr , (210) 276-2012
Sam's Club,Warehouse club,5055 Northwest Loop 410 · (210) 680-9425,5055 Northwest Loop 410 , (210) 680-9425
Walmart Supercenter,Department store,3302 SE Military Dr · (210) 337-1946,3302 SE Military Dr , (210) 337-1946
Walmart Supercenter,Department store,2100 SE Loop 410 Acc Rd · (210) 648-7194,2100 SE Loop 410 Acc Rd , (210) 648-7194
Walmart Pharmacy,Pharmacy,"Pleasanton, TX · (830) 569-5565","Pleasanton, TX ", (830) 569-5565
CommuniCare Pediatrics & OBGYN - Medical Center Clinic,Pharmacy,7220 Louis Pasteur Dr Suite 140 Suite #140 · In Med Center Pointe · (210) 233-7000,7220 Louis Pasteur Dr Suite 140 Suite #140 , In Med Center Pointe 
Walmart Supercenter,Department store,6703 W Loop 1604 N · (210) 688-3626,6703 W Loop 1604 N , (210) 688-3626
CommuniCare Health Centers - Alamo Ranch Clinic,Pharmacy,6838 Alamo Pkwy Suite #5 · (210) 431-6262,6838 Alamo Pkwy Suite #5 , (210) 431-6262
Walmart Neighborhood Market,Grocery store,9006 Guilbeau Rd · (210) 536-3160,9006 Guilbeau Rd , (210) 536-3160
Lone Star Pharmacy,Pharmacy,"Canyon Lake, TX · (830) 964-3615","Canyon Lake, TX ", (830) 964-3615
Urology San Antonio (Stone Oak),Pharmacy,18915 Meisner Dr · (210) 499-5158,18915 Meisner Dr , (210) 499-5158
H-E-B,Grocery store,14325 Potranco Rd · In Stevens Ranch Shopping Center · (210) 688-4662,14325 Potranco Rd , In Stevens Ranch Shopping Center 
Target,Department store,3227 SE Military Dr · In Brooks Corner Shopping Center · (210) 247-0082,3227 SE Military Dr , In Brooks Corner Shopping Center 
Sam's Club,Warehouse club,3239 Goliad Rd · (210) 507-0482,3239 Goliad Rd , (210) 507-0482
H-E-B Pharmacy,Pharmacy,"San Antonio, TX · (210) 341-3875","San Antonio, TX ", (210) 341-3875
CVS,Drug store,"San Antonio, TX · (210) 561-1325","San Antonio, TX ", (210) 561-1325
Walmart Supercenter,Department store,16503 Nacogdoches Rd · (210) 646-6077,16503 Nacogdoches Rd , (210) 646-6077
Urology San Antonio (Westover Hills),Pharmacy,10431 TX-151 · (210) 521-7333,10431 TX-151 , (210) 521-7333
Costco Wholesale,Warehouse store,191 West Loop 1604 South · (210) 868-6725,191 West Loop 1604 South , (210) 868-6725
Target,Department store,746 Northwest Loop 410 · In Park North Shopping Center · (210) 424-2301,746 Northwest Loop 410 , In Park North Shopping Center 
Target Grocery,Grocery store,22832 U.S. Hwy 281 N · In Village at Stone Oak · (210) 679-2368,22832 U.S. Hwy 281 N , In Village at Stone Oak 
Target,Department store,11311 Bandera Rd · In Bandera Pointe · (210) 682-2253,11311 Bandera Rd , In Bandera Pointe 
Walmart Supercenter,Department store,1603 Vance Jackson Rd · (210) 738-8218,1603 Vance Jackson Rd , (210) 738-8218
Target,Department store,1223 Austin Hwy · In Terrell Plaza · (210) 202-3578,1223 Austin Hwy , In Terrell Plaza 
Target,Department store,13700 San Pedro Ave · (210) 496-6800,13700 San Pedro Ave , (210) 496-6800
Target,Department store,2810 SW Military Dr · In Target Mobile · (210) 977-8552,2810 SW Military Dr , In Target Mobile 
Target,Department store,8223 TX-151 · In Westover Marketplace · (210) 247-0016,8223 TX-151 , In Westover Marketplace 
Blanco Pharmacy & Wellness,Pharmacy,"Blanco, TX · (830) 833-4815","Blanco, TX ", (830) 833-4815
Medina Annex Shoppette,Store,"Lackland AFB, TX · (210) 674-5222","Lackland AFB, TX ", (210) 674-5222
CommuniCare Pediatrics - Encino Park Clinic,Pharmacy,20306 Encino Ledge Suite #101 · (210) 402-0138,20306 Encino Ledge Suite #101 , (210) 402-0138
Robert B. Green Campus - University Health,Medical clinic,903 W Martin St · (210) 358-3400,903 W Martin St , (210) 358-3400
CVS,Drug store,"Spring Branch, TX · (830) 438-8001","Spring Branch, TX ", (830) 438-8001
Schnabel's Hardware,Home improvement store,4337 McCullough Ave · (210) 826-4412,4337 McCullough Ave , (210) 826-4412
Target Mobile,Cell phone store,2810 SW Military Dr · (210) 977-8552,2810 SW Military Dr , (210) 977-8552
Target,Department store,"Balcones Heights, TX · In the Wonderland of the Americas · (210) 280-0000","Balcones Heights, TX ", In the Wonderland of the Americas 
Walmart Supercenter,Department store,"Converse, TX · (210) 666-6066","Converse, TX ", (210) 666-6066
CVS Pharmacy,Pharmacy,"San Antonio, TX · (210) 679-2369","San Antonio, TX ", (210) 679-2369
Davila Pharmacy Inc.,Pharmacy,"San Antonio, TX · (210) 226-5293","San Antonio, TX ", (210) 226-5293
Walmart Supercenter,Department store,"Helotes, TX · (210) 507-4979","Helotes, TX ", (210) 507-4979
Medly Pharmacy San Antonio,Pharmacy,13331 Nacogdoches Rd · (210) 944-4545,13331 Nacogdoches Rd , (210) 944-4545
Target,Department store,"Selma, TX · In The Forum at Olympia Parkway- Selma, Texas · (210) 945-9102","Selma, TX "," In The Forum at Olympia Parkway- Selma, Texas "
Military Apothecary Lp,Pharmacy,810 SE Military Dr · (210) 923-4404,810 SE Military Dr , (210) 923-4404
CentroMed Christus Santa Rosa Professional Pavilion,Pediatrician,315 N San Saba #103 · In The Children's Hospital of San Antonio · (210) 922-7000,315 N San Saba #103 , In The Children's Hospital of San Antonio 
MedPost Urgent Care - San Antonio West Hildebrand,Urgent care center,115 Angeles Dr Suite 103 Suite 103 · (210) 664-0962,115 Angeles Dr Suite 103 Suite 103 , (210) 664-0962
San Antonio,Train station,350 Hoefgen Ave · (800) 872-7245,350 Hoefgen Ave , (800) 872-7245
Cibolo Creek Veterinary Hospital,Animal hospital,"Boerne, TX · (830) 816-5123","Boerne, TX ", (830) 816-5123
Cibolo Small Animal Hospital,Veterinarian,"Cibolo, TX · (210) 651-1384","Cibolo, TX ", (210) 651-1384
Resolute Baptist Hospital,Pharmacy,"New Braunfels, TX · (830) 500-6000","New Braunfels, TX ", (830) 500-6000
