Pharmacy Name,Type of Location,Address and Phone Number,Address,Phone Number
Walgreens Pharmacy,Pharmacy,"Dallas, TX · (972) 386-6254","Dallas, TX ", (972) 386-6254
Prism Health North Texas Pharmacy - Oak Cliff,Pharmacy,219 Sunset Ave #116-A · (469) 749-7822,219 Sunset Ave #116-A , (469) 749-7822
Cocina Pharmacy,Pharmacy,"Dallas, TX","Dallas, TX","Dallas, TX"
Prism Health North Texas Pharmacy - Oak Lawn,Pharmacy,2801 Lemmon Ave #100 · (469) 749-7824,2801 Lemmon Ave #100 , (469) 749-7824
Prism Health North Texas Pharmacy - South Dallas,Pharmacy,4907 Spring Ave #101 · (214) 565-8551,4907 Spring Ave #101 , (214) 565-8551
Cedra Pharmacy,Pharmacy,9669 N Central Expy #190 · In Turn Back Time Spa · (214) 983-1000,9669 N Central Expy #190 , In Turn Back Time Spa 
Dougherty's Pharmacy,Pharmacy,12835 Preston Rd · In Preston Valley Shopping Center · (214) 373-5300,12835 Preston Rd , In Preston Valley Shopping Center 
Campbell Pharmacy,Pharmacy,6090 Campbell Rd Ste 100 · (469) 248-1000,6090 Campbell Rd Ste 100 , (469) 248-1000
CVS Pharmacy,Pharmacy,13033 Coit Rd · (972) 392-9634,13033 Coit Rd , (972) 392-9634
CVS Pharmacy,Pharmacy,2501 N Field St · (214) 468-8732,2501 N Field St , (214) 468-8732
CVS Pharmacy,Pharmacy,15105 Preston Rd · (972) 763-1527,15105 Preston Rd , (972) 763-1527
CVS Pharmacy,Pharmacy,18081 Preston Rd · (469) 749-3946,18081 Preston Rd , (469) 749-3946
CVS Pharmacy,Pharmacy,7102 Campbell Rd · (972) 931-7045,7102 Campbell Rd , (972) 931-7045
Pharmed LP,Pharmacy,6220 Campbell Rd · (972) 248-3232,6220 Campbell Rd , (972) 248-3232
CVS Pharmacy,Pharmacy,16731 Coit Rd · In Target · (214) 775-0207,16731 Coit Rd , In Target 
CVS Pharmacy,Pharmacy,14041 Noel Rd · (972) 387-8664,14041 Noel Rd , (972) 387-8664
CVS Pharmacy,Pharmacy,11661 Preston Rd · In Preston Lebanon Crossing · (214) 363-1571,11661 Preston Rd , In Preston Lebanon Crossing 
Walgreens Pharmacy,Pharmacy,18207 Midway Rd · (972) 307-7556,18207 Midway Rd , (972) 307-7556
CVS Pharmacy,Pharmacy,4610 Frankford Rd · (972) 732-6197,4610 Frankford Rd , (972) 732-6197
Walgreens Pharmacy,Pharmacy,6707 W Northwest Hwy · (214) 361-4637,6707 W Northwest Hwy , (214) 361-4637
CVS Pharmacy,Pharmacy,7979 Belt Line Rd · (972) 936-7998,7979 Belt Line Rd , (972) 936-7998
CVS,Drug store,"Irving, TX · (972) 986-8588","Irving, TX ", (972) 986-8588
Walgreens,Drug store,"Rowlett, TX · (972) 463-6500","Rowlett, TX ", (972) 463-6500
St. Vincent de Paul Pharmacy,Pharmacy,5750 Pineland Dr #280 · In Northwest Community Center · (469) 232-9902,5750 Pineland Dr #280 , In Northwest Community Center 
"Aa Pharmacy, Llc",Pharmacy,17826 Davenport Rd Suite B · (361) 855-9494,17826 Davenport Rd Suite B , (361) 855-9494
Walmart Pharmacy,Pharmacy,15220 Montfort Rd · (972) 233-8764,15220 Montfort Rd , (972) 233-8764
Walmart Pharmacy,Pharmacy,18121 Marsh Ln · (972) 862-6360,18121 Marsh Ln , (972) 862-6360
CVS Pharmacy,Pharmacy,10455 N Central Expy · (214) 369-3872,10455 N Central Expy , (214) 369-3872
Walmart Pharmacy,Pharmacy,15757 Coit Rd · (972) 235-0619,15757 Coit Rd , (972) 235-0619
Meyerland Pharmacy,Pharmacy,4043 E Trinity Mls Rd · In Trinity Oaks · (713) 728-8000,4043 E Trinity Mls Rd , In Trinity Oaks 
Janeque Jones,Pharmacy,16731 Coit Rd · (214) 775-0207,16731 Coit Rd , (214) 775-0207
CVS Pharmacy,Pharmacy,2417 N Haskell Ave. · In Target · (214) 370-5558,2417 N Haskell Ave. , In Target 
Walgreens Pharmacy,Pharmacy,11700 Preston Rd Ste 703 · (214) 750-4502,11700 Preston Rd Ste 703 , (214) 750-4502
CVS Pharmacy,Pharmacy,17410 Marsh Ln · (972) 306-4931,17410 Marsh Ln , (972) 306-4931
"Community, A Walgreens Pharmacy",Pharmacy,7859 Walnut Hill Ln Suite 110 · In Preston Hollow Village Apartments · (214) 530-9759,7859 Walnut Hill Ln Suite 110 , In Preston Hollow Village Apartments 
DermRX Pharmacy,Pharmacy,17826 Davenport Rd · (844) 504-8772,17826 Davenport Rd , (844) 504-8772
CVS Pharmacy,Pharmacy,13131 Montfort Dr · In Target · (972) 490-3951,13131 Montfort Dr , In Target 
Link Pharmacy,Pharmacy,18484 Preston Rd Suite 300 · In Preston Highlands Village · (945) 910-5465,18484 Preston Rd Suite 300 , In Preston Highlands Village 
CVS Pharmacy,Pharmacy,8000 Frankford Rd · (214) 459-8873,8000 Frankford Rd , (214) 459-8873
"Forney Pharmacy, LLC",Pharmacy,13355 Noel Rd ste 1100 · In Galleria Dallas · (469) 309-1188,13355 Noel Rd ste 1100 , In Galleria Dallas 
Preston Road Pharmacy,Pharmacy,6901 Preston Rd · In Caruth Haven Plaza · (214) 521-9991,6901 Preston Rd , In Caruth Haven Plaza 
CVS Pharmacy,Pharmacy,2350 N Fitzhugh Ave · (214) 515-5574,2350 N Fitzhugh Ave , (214) 515-5574
Walgreens Pharmacy,Pharmacy,18410 Preston Rd · (972) 599-1004,18410 Preston Rd , (972) 599-1004
CVS,Drug store,"Irving, TX · (972) 255-4155","Irving, TX ", (972) 255-4155
AHF Pharmacy - Medical City,Pharmacy,"Dallas, TX · (972) 383-1070","Dallas, TX ", (972) 383-1070
Bobbie Quach,Pharmacy,15105 Preston Rd · (972) 763-1527,15105 Preston Rd , (972) 763-1527
Lela Pharmacy,Pharmacy,17826 Davenport Rd,17826 Davenport Rd,17826 Davenport Rd
ReNue Plaza,Pharmacy,600 N Pearl St H201 · In the Plaza of the Americas · (214) 855-0606,600 N Pearl St H201 , In the Plaza of the Americas 
Nguyen Le,Pharmacy,7979 Belt Line Rd · (972) 936-7998,7979 Belt Line Rd , (972) 936-7998
Sina Rx Pharmacy,Pharmacy,8060 Spring Valley Rd · (214) 570-1610,8060 Spring Valley Rd , (214) 570-1610
Preston Village Pharmacy,Pharmacy,12606 Greenville Ave · (972) 866-0017,12606 Greenville Ave , (972) 866-0017
Walmart Pharmacy,Pharmacy,1521 N Cockrell Hill Rd · (214) 337-8092,1521 N Cockrell Hill Rd , (214) 337-8092
Ravens Pharmacy,Pharmacy,820 N Zang Blvd Suite 120 · (214) 946-1700,820 N Zang Blvd Suite 120 , (214) 946-1700
Rite Quality Pharmacy & Health,Pharmacy,18900 Dallas Pkwy #106 · (214) 271-5260,18900 Dallas Pkwy #106 , (214) 271-5260
Niven Hidell,Pharmacy,7930 Belt Line Rd · (972) 716-0937,7930 Belt Line Rd , (972) 716-0937
Kroger Pharmacy,Pharmacy,17194 Preston Rd · (972) 931-9371,17194 Preston Rd , (972) 931-9371
Walgreens Pharmacy,Pharmacy,7930 Belt Line Rd · (972) 716-0937,7930 Belt Line Rd , (972) 716-0937
Walgreens Pharmacy,Pharmacy,5201 Belt Line Rd · (972) 386-6254,5201 Belt Line Rd , (972) 386-6254
CHC Pharmacy (Dentro/Inside el Rancho),Pharmacy,14211 Coit Rd · (972) 807-2527,14211 Coit Rd , (972) 807-2527
Walgreens Pharmacy,Pharmacy,7777 Forest Ln Bldg B · In Medical City Children's Hospital · (972) 661-0835,7777 Forest Ln Bldg B , In Medical City Children's Hospital 
Drive-Thru Pharmacy,Pharmacy,13033 Coit Rd,13033 Coit Rd,13033 Coit Rd
First Pharmacy,Pharmacy,2350 N Stemmons Fwy · In Children's Health Specialty Center Dallas Campus · (214) 456-0641,2350 N Stemmons Fwy , In Children's Health Specialty Center Dallas Campus 
Dawn Morgan,Pharmacy,18212 Preston Rd · (972) 985-2250,18212 Preston Rd , (972) 985-2250
Walgreens Pharmacy,Pharmacy,6520 E NW Hwy · (214) 341-0861,6520 E NW Hwy , (214) 341-0861
Tom Thumb Pharmacy,Pharmacy,4625 Frankford Rd · (972) 732-6863,4625 Frankford Rd , (972) 732-6863
Walgreens Pharmacy,Pharmacy,"Mesquite, TX · (972) 288-8287","Mesquite, TX ", (972) 288-8287
CVS Pharmacy,Pharmacy,"Grand Prairie, TX · (972) 264-2371","Grand Prairie, TX ", (972) 264-2371
Tom Thumb Pharmacy,Pharmacy,14999 Preston Rd · (972) 661-0492,14999 Preston Rd , (972) 661-0492
Kroger Pharmacy,Pharmacy,3939 Frankford Rd · (972) 662-1011,3939 Frankford Rd , (972) 662-1011
Lynda Lee,Pharmacy,11920 Preston Rd · In Market at Preston Forest · (972) 980-4915,11920 Preston Rd , In Market at Preston Forest 
CVS Pharmacy,Pharmacy,6709 Preston Rd · (214) 521-4085,6709 Preston Rd , (214) 521-4085
Paragon,Pharmacy,17111 Preston Rd · In Amber Trail Office Park,17111 Preston Rd , In Amber Trail Office Park
Preston Road Health Mart Pharmacy,Pharmacy,9301 N Central Expy,9301 N Central Expy,9301 N Central Expy
Tom Thumb Pharmacy,Pharmacy,18212 Preston Rd · (972) 985-2250,18212 Preston Rd , (972) 985-2250
Palmer Pharmacy Plus,Pharmacy,2731 W Northwest Hwy #105 · (214) 765-9238,2731 W Northwest Hwy #105 , (214) 765-9238
La Plaza Pharmacy,Pharmacy,9622 Webb Chapel Rd · (214) 654-0046,9622 Webb Chapel Rd , (214) 654-0046
Walgreens Pharmacy,Pharmacy,1306 N Beckley Ave · (214) 948-3559,1306 N Beckley Ave , (214) 948-3559
CVS Pharmacy,Pharmacy,9390 Forest Ln · (214) 341-3600,9390 Forest Ln , (214) 341-3600
Jeffrey Dowling,Pharmacy,14999 Preston Rd · (972) 661-0492,14999 Preston Rd , (972) 661-0492
Tom Thumb Pharmacy,Pharmacy,11920 Preston Rd · (972) 980-4915,11920 Preston Rd , (972) 980-4915
CVS Pharmacy,Pharmacy,9215 Midway Rd · (214) 351-1281,9215 Midway Rd , (214) 351-1281
CVS Pharmacy,Pharmacy,6420 Gaston Ave · (469) 334-0758,6420 Gaston Ave , (469) 334-0758
Panacea Rx Pharmacy,Pharmacy,1050 N Westmoreland Rd #2444 · (214) 339-2352,1050 N Westmoreland Rd #2444 , (214) 339-2352
Texas Rx Pharmacy II,Pharmacy,11613 N Central Expy #114 · In Central Forest Shopping Center · (214) 361-9228,11613 N Central Expy #114 , In Central Forest Shopping Center 
Genoa Healthcare,Pharmacy,2600 N Stemmons Fwy · (214) 634-1300,2600 N Stemmons Fwy , (214) 634-1300
Tom Thumb Pharmacy,Pharmacy,10455 N Central Expy · (214) 369-7328,10455 N Central Expy , (214) 369-7328
AHF Pharmacy - Dallas Market Center,Pharmacy,2600 N Stemmons Fwy Suite 141A · (972) 584-9653,2600 N Stemmons Fwy Suite 141A , (972) 584-9653
CVS,Drug store,"Carrollton, TX · (972) 446-1915","Carrollton, TX ", (972) 446-1915
AHF Pharmacy - Dallas Market Center,Pharmacy,"Dallas, TX · (972) 584-9653","Dallas, TX ", (972) 584-9653
CVS Pharmacy y más,Pharmacy,2899 Forest Ln · (972) 241-0175,2899 Forest Ln , (972) 241-0175
Walgreens Pharmacy,Pharmacy,4702 N Jim Miller Rd · (214) 388-4951,4702 N Jim Miller Rd , (214) 388-4951
CVS Pharmacy,Pharmacy,8335 Westchester Dr · (214) 361-7118,8335 Westchester Dr , (214) 361-7118
Abrams Royal Pharmacy,Pharmacy,8220 Abrams Rd · (214) 349-8000,8220 Abrams Rd , (214) 349-8000
Health Mart,Pharmacy,9301 N Central Expy · (214) 361-6172,9301 N Central Expy , (214) 361-6172
Rachel Bruce,Pharmacy,5201 Belt Line Rd · (972) 386-6254,5201 Belt Line Rd , (972) 386-6254
Walmart Pharmacy,Pharmacy,4122 Lyndon B Johnson Fwy · (972) 239-4297,4122 Lyndon B Johnson Fwy , (972) 239-4297
Buckner Neighborhood Pharmacy,Pharmacy,3535 N Buckner Blvd #106 · (214) 321-3000,3535 N Buckner Blvd #106 , (214) 321-3000
CVS Pharmacy,Pharmacy,3798 Forest Ln · (214) 357-4667,3798 Forest Ln , (214) 357-4667
Komal Patel,Pharmacy,5201 Belt Line Rd · (972) 386-6254,5201 Belt Line Rd , (972) 386-6254
Meridian Pharmacy,Pharmacy,1151 N Buckner Blvd Suite 104 · (214) 333-1600,1151 N Buckner Blvd Suite 104 , (214) 333-1600
Tom Thumb Pharmacy,Pharmacy,2380 N Field St · In The Christopher · (972) 454-5050,2380 N Field St , In The Christopher 
Walmart Pharmacy,Pharmacy,2305 N Central Expy · In Galleria · (214) 953-0165,2305 N Central Expy , In Galleria 
Link Pharmacy Pin 031973,Pharmacy,Campbell Pharmacy · (512) 259-8400,Campbell Pharmacy , (512) 259-8400
Tony Pham,Pharmacy,13739 N Central Expy · (972) 656-2821,13739 N Central Expy , (972) 656-2821
Uptown Rx Pharmacy & Nutrition,Pharmacy,3408 Oak Lawn Ave · (214) 935-9092,3408 Oak Lawn Ave , (214) 935-9092
CVS Pharmacy,Pharmacy,9440 Marsh Ln · In Target · (469) 341-1548,9440 Marsh Ln , In Target 
Recept Pharmacy,Pharmacy,2225 Vatican Ln · (214) 330-6000,2225 Vatican Ln , (214) 330-6000
Walmart Pharmacy,Pharmacy,9301 Forest Ln · (972) 437-6858,9301 Forest Ln , (972) 437-6858
ReNue Hampton Pharmacy,Pharmacy,2701 S Hampton Rd · (972) 707-8248,2701 S Hampton Rd , (972) 707-8248
CVS,Drug store,"Dallas, TX · (972) 780-1325","Dallas, TX ", (972) 780-1325
AHF Pharmacy - Dallas Market Center,Pharmacy,"Dallas, TX · (972) 584-9653","Dallas, TX ", (972) 584-9653
PharmaShield,Pharmacy,14241 Dallas Pkwy · In International Plaza #3 · (844) 311-8445,14241 Dallas Pkwy , In International Plaza #3 
Kaitlyn Vo,Pharmacy,5201 Belt Line Rd · (972) 386-6254,5201 Belt Line Rd , (972) 386-6254
CVS Pharmacy,Pharmacy,8555 Ferguson Rd · (214) 320-0892,8555 Ferguson Rd , (214) 320-0892
Oak Lawn Pharmacy,Pharmacy,4003 Lemmon Ave · (214) 954-7389,4003 Lemmon Ave , (214) 954-7389
Albertsons Pharmacy,Pharmacy,5959 Royal Ln · In Preston Royal · (214) 414-1440,5959 Royal Ln , In Preston Royal 
Hong Le,Pharmacy,18212 Preston Rd · (972) 985-2250,18212 Preston Rd , (972) 985-2250
Sina Rx Pharmacy,Pharmacy,3460 Webb Chapel Ext · In Market Place at Webb Chapel · (214) 350-6600,3460 Webb Chapel Ext , In Market Place at Webb Chapel 
Family Discount Pharmacy,Pharmacy,"Richardson, TX · In Promenade North Plaza · (972) 235-0444","Richardson, TX ", In Promenade North Plaza 
Walgreens Pharmacy,Pharmacy,3732 W Northwest Hwy · (214) 956-0113,3732 W Northwest Hwy , (214) 956-0113
Safemed Pharmacy,Pharmacy,6300 Samuell Blvd · (972) 412-7373,6300 Samuell Blvd , (972) 412-7373
Bryan Abraham,Pharmacy,7102 Campbell Rd · (972) 931-7045,7102 Campbell Rd , (972) 931-7045
Parklane Pharmacy,Pharmacy,6873 Shady Brook Ln · (214) 265-7275,6873 Shady Brook Ln , (214) 265-7275
Baylor Scott & White Pharmacy #101,Pharmacy,3600 Gaston Ave Ste 109 · (214) 820-3451,3600 Gaston Ave Ste 109 , (214) 820-3451
Tom Thumb Pharmacy,Pharmacy,5959 Royal Ln · In Preston Royal · (214) 414-1440,5959 Royal Ln , In Preston Royal 
Raymond Hawkins,Pharmacy,11613 N Central Expy SUITE 114 · In Central Forest Shopping Center · (214) 361-9228,11613 N Central Expy SUITE 114 , In Central Forest Shopping Center 
CVS Pharmacy,Pharmacy,8024 Walnut Hill Ln · (214) 368-3050,8024 Walnut Hill Ln , (214) 368-3050
Soo Pak,Pharmacy,18121 Marsh Ln · (972) 862-6360,18121 Marsh Ln , (972) 862-6360
AHF Pharmacy - Medical City,Pharmacy,7777 Forest Ln B-122 · (972) 383-1070,7777 Forest Ln B-122 , (972) 383-1070
Providence Pharmacy,Pharmacy,8877 Harry Hines Blvd · (214) 353-7202,8877 Harry Hines Blvd , (214) 353-7202
Qol Meds,Pharmacy,2600 N Stemmons Fwy · (214) 634-1300,2600 N Stemmons Fwy , (214) 634-1300
CVS,Drug store,"Dallas, TX · (214) 349-4400","Dallas, TX ", (214) 349-4400
AHF Pharmacy - Medical City,Pharmacy,"Dallas, TX · (972) 383-1070","Dallas, TX ", (972) 383-1070
CVS,Drug store,2501 N Field St · (214) 468-8732,2501 N Field St , (214) 468-8732
Plaza Apothecary Pllc,Pharmacy,600 N Pearl St H201 · In the Plaza of the Americas · (214) 855-0606,600 N Pearl St H201 , In the Plaza of the Americas 
UTSW Speciality Pharmacy,Pharmacy,2929 N Stemmons Fwy Suite XA1.2 · (214) 645-6828,2929 N Stemmons Fwy Suite XA1.2 , (214) 645-6828
Walgreens Pharmacy at Medical City Dallas Hospital-Bldg B,Pharmacy,7777 Forest Ln Bldg B · In Medical City Children's Hospital · (972) 386-0572,7777 Forest Ln Bldg B , In Medical City Children's Hospital 
Titan RX,Pharmacy,8360 Lyndon B Johnson Fwy Suite 230 · In Kemper · (469) 518-8511,8360 Lyndon B Johnson Fwy Suite 230 , In Kemper 
Hemophilia Pharmacy,Pharmacy,325 North St. Paul Street 31st floor · In Republic Center · (314) 915-0658,325 North St. Paul Street 31st floor , In Republic Center 
CVS Pharmacy y más,Pharmacy,10003 Marsh Ln · (214) 358-4865,10003 Marsh Ln , (214) 358-4865
EPS RX,Pharmacy,13619 Inwood Rd suite 380 · In INWOOD PLAZA · (214) 812-9958,13619 Inwood Rd suite 380 , In INWOOD PLAZA 
AIS Healthcare,Pharmacy,18451Dallas Parkway · (877) 443-4006,18451Dallas Parkway , (877) 443-4006
Walgreens Pharmacy,Pharmacy,8310 Abrams Rd · (214) 503-6286,8310 Abrams Rd , (214) 503-6286
James Zubiate,Pharmacy,7930 Belt Line Rd · (972) 716-0937,7930 Belt Line Rd , (972) 716-0937
White Rock Pharmacy,Pharmacy,9037 Garland Rd · In White Rock Shopping Center · (214) 660-1603,9037 Garland Rd , In White Rock Shopping Center 
Nexgen Specialty Pharmacy,Pharmacy,400 North St. Paul Street · In the Hartford Building · (855) 994-0100,400 North St. Paul Street , In the Hartford Building 
CVS Pharmacy,Pharmacy,3133 Lemmon Ave E · (214) 599-2108,3133 Lemmon Ave E , (214) 599-2108
CVS,Drug store,14041 Noel Rd · (972) 387-8664,14041 Noel Rd , (972) 387-8664
Dana Discount Pharmacy,Pharmacy,"Richardson, TX · (972) 231-8885","Richardson, TX ", (972) 231-8885
Farnoosh Ahmadi,Pharmacy,"15105 Preston Rd · In Neighborhood Medical Center. Martin G. McElya, DO · (972) 763-1527",15105 Preston Rd ," In Neighborhood Medical Center. Martin G. McElya, DO "
Walgreens Pharmacy,Pharmacy,9807 Walnut Hill Ln · (469) 341-3908,9807 Walnut Hill Ln , (469) 341-3908
Amy Lee,Pharmacy,3410 Worth St Ste 240 · (214) 820-8400,3410 Worth St Ste 240 , (214) 820-8400
Falguni Joshi,Pharmacy,18410 Preston Rd · In The Arbors on Preston Road · (972) 599-1004,18410 Preston Rd , In The Arbors on Preston Road 
AHF Pharmacy - Medical City,Pharmacy,"Dallas, TX · (972) 383-1070","Dallas, TX ", (972) 383-1070
CVS Pharmacy,Pharmacy,"Mesquite, TX · (972) 288-4485","Mesquite, TX ", (972) 288-4485
Walgreens Pharmacy,Pharmacy,3802 Cedar Springs Rd · (214) 443-5160,3802 Cedar Springs Rd , (214) 443-5160
Kroger Pharmacy,Pharmacy,9140 Forest Ln · (214) 221-0978,9140 Forest Ln , (214) 221-0978
Van-Anh Phan,Pharmacy,11920 Preston Rd · In Market at Preston Forest · (972) 980-4915,11920 Preston Rd , In Market at Preston Forest 
Salud's Pharmacy,Pharmacy,611 Jefferson Blvd Ste. 500 · (214) 946-3886,611 Jefferson Blvd Ste. 500 , (214) 946-3886
Canadian Health&Care Mall,Pharmacy,5501 Lyndon B Johnson Fwy · (864) 610-3116,5501 Lyndon B Johnson Fwy , (864) 610-3116
Walgreens Pharmacy,Pharmacy,5742 E Mockingbird Ln · (214) 826-7136,5742 E Mockingbird Ln , (214) 826-7136
Tom Thumb Pharmacy,Pharmacy,3757 Forest Ln · (972) 241-7442,3757 Forest Ln , (972) 241-7442
Lawrence Ekaney,Pharmacy,17826 Davenport Rd STE B · (972) 467-0173,17826 Davenport Rd STE B , (972) 467-0173
CVS Pharmacy,Pharmacy,150 E Illinois Ave · (214) 944-5857,150 E Illinois Ave , (214) 944-5857
Sam's Club Pharmacy,Pharmacy,4062 Lyndon B Johnson Fwy · (972) 759-6492,4062 Lyndon B Johnson Fwy , (972) 759-6492
Kazi Islam,Pharmacy,13022 Preston Rd · (972) 386-4649,13022 Preston Rd , (972) 386-4649
AHF Pharmacy - Dallas,Pharmacy,3920 Cedar Springs Rd · (214) 599-7020,3920 Cedar Springs Rd , (214) 599-7020
Sandra Dyo,Pharmacy,16731 COIT RD T-1775 · (214) 775-0207,16731 COIT RD T-1775 , (214) 775-0207
OneSource Specialty Medicine,Pharmacy,8989 Forest Ln · In Forest View Plaza · (469) 547-1441,8989 Forest Ln , In Forest View Plaza 
Costco Pharmacy,Pharmacy,8055 Churchill Way · (469) 680-7546,8055 Churchill Way , (469) 680-7546
Health Mart,Pharmacy,2603 Oak Lawn Ave · (469) 248-7445,2603 Oak Lawn Ave , (469) 248-7445
Fiesta Pharmacy,Pharmacy,2947 S Buckner Blvd · (214) 275-8066,2947 S Buckner Blvd , (214) 275-8066
Hannah Ho,Pharmacy,12700 Hillcrest Rd STE 218 · (214) 227-7645,12700 Hillcrest Rd STE 218 , (214) 227-7645
Bayo's Pharmacy,Pharmacy,2100 W Colorado Blvd · (214) 948-9441,2100 W Colorado Blvd , (214) 948-9441
Ebere Enebeli,Pharmacy,2501 N Field St · In CVS,2501 N Field St , In CVS
CVS,Drug store,"Sunnyvale, TX · (972) 226-4342","Sunnyvale, TX ", (972) 226-4342
AHF Pharmacy - Medical City,Pharmacy,"Dallas, TX · (972) 383-1070","Dallas, TX ", (972) 383-1070
Devonshire Pharmacy,Pharmacy,5445 La Sierra Dr · In Holt-Lunsford Bldg. · (469) 267-7762,5445 La Sierra Dr , In Holt-Lunsford Bldg. 
myfastassist,Pharmacy,5501 Lyndon B Johnson Fwy,5501 Lyndon B Johnson Fwy,5501 Lyndon B Johnson Fwy
Brigette Deville,Pharmacy,13131 MONTFORT DR T-0013 · (972) 239-8161,13131 MONTFORT DR T-0013 , (972) 239-8161
Angela Luong,Pharmacy,4062 Lyndon B Johnson Fwy · (972) 759-6492,4062 Lyndon B Johnson Fwy , (972) 759-6492
Mesquite Care Pharmacy,Pharmaceutical company,5409 N Jim Miller Rd #217 · In Jim Miller Center · (972) 285-1444,5409 N Jim Miller Rd #217 , In Jim Miller Center 
Hillcrest Pharmacy,Pharmacy,7150 Greenville Ave #107 · In Greenville Medical Tower Ltd · (469) 779-0385,7150 Greenville Ave #107 , In Greenville Medical Tower Ltd 
Sohaila Nikaeen,Pharmacy,14999 Preston Rd · In Preston Beltline · (972) 661-0492,14999 Preston Rd , In Preston Beltline 
Rite Care Pharmacy,Pharmacy,9415 Bruton Rd Suite 3103 · (214) 421-2210,9415 Bruton Rd Suite 3103 , (214) 421-2210
Kyle Milberger,Pharmacy,16731 Coit Rd · (214) 775-0207,16731 Coit Rd , (214) 775-0207
Lowell Adams,Pharmacy,"7777, 80 Forest Ln BLDG. B, STE A · (972) 386-0572","7777, 80 Forest Ln BLDG. B, STE A ", (972) 386-0572
Gregory Matuszewski,Pharmacy,2350 N Fitzhugh Ave · (214) 515-5574,2350 N Fitzhugh Ave , (214) 515-5574
Kroger Pharmacy,Pharmacy,"Village Shp Ctr, 752 Wynnewood Dr · (214) 942-3191","Village Shp Ctr, 752 Wynnewood Dr ", (214) 942-3191
Emily Siswanto,Pharmacy,18207 Midway Rd · (972) 307-7556,18207 Midway Rd , (972) 307-7556
CVS Pharmacy,Pharmacy,5050 S Lancaster Rd · (214) 375-8924,5050 S Lancaster Rd , (214) 375-8924
Alan Roach,Pharmacy,"METHODIST HOSPITAL OF DALLAS, 1441 N Beckley Ave · (214) 947-2400","METHODIST HOSPITAL OF DALLAS, 1441 N Beckley Ave ", (214) 947-2400
Larissa Poorman,Pharmacy,13131 Montfort Dr · (972) 490-3951,13131 Montfort Dr , (972) 490-3951
Paul Jeoun,Pharmacy,15220 MONTFORT RD · In Walmart Supercenter · (972) 233-8764,15220 MONTFORT RD , In Walmart Supercenter 
CVS,Drug store,18081 Preston Rd · (469) 749-3946,18081 Preston Rd , (469) 749-3946
Dwight Paulson,Pharmacy,301 N Washington Ave · (469) 800-8202,301 N Washington Ave , (469) 800-8202
CVS Pharmacy,Pharmacy,"Richardson, TX · (972) 997-9088","Richardson, TX ", (972) 997-9088
Link Pharmacy,Pharmacy,"Dallas, TX · (945) 910-5465","Dallas, TX ", (945) 910-5465
Landmark Infusion,Pharmacy,"Irving, TX · (866) 388-3883","Irving, TX ", (866) 388-3883
Hemophilia Pharmacy,Pharmacy,325 North St. Paul Street 31st floor · In Republic Center · (314) 915-0658,325 North St. Paul Street 31st floor , In Republic Center 
CVS Pharmacy,Pharmacy,3133 Lemmon Ave E · (214) 599-2108,3133 Lemmon Ave E , (214) 599-2108
Nexgen Specialty Pharmacy,Pharmacy,400 North St. Paul Street · In the Hartford Building · (855) 994-0100,400 North St. Paul Street , In the Hartford Building 
Avita Pharmacy 1028,Pharmacy,750 Fort Worth Ave Suite H100 · (214) 943-5187,750 Fort Worth Ave Suite H100 , (214) 943-5187
Baylor Scott & White Pharmacy #101,Pharmacy,3600 Gaston Ave Ste 109 · (214) 820-3451,3600 Gaston Ave Ste 109 , (214) 820-3451
Safemed Pharmacy,Pharmacy,6300 Samuell Blvd · (972) 412-7373,6300 Samuell Blvd , (972) 412-7373
Gregory Matuszewski,Pharmacy,2350 N Fitzhugh Ave · (214) 515-5574,2350 N Fitzhugh Ave , (214) 515-5574
Walgreens Pharmacy,Pharmacy,3802 Cedar Springs Rd · (214) 443-5160,3802 Cedar Springs Rd , (214) 443-5160
AHF Pharmacy - Dallas,Pharmacy,3920 Cedar Springs Rd · (214) 599-7020,3920 Cedar Springs Rd , (214) 599-7020
Express Care Pharmacy,Pharmacy,"Carrollton, TX · (214) 800-5526","Carrollton, TX ", (214) 800-5526
Mesquite Care Pharmacy,Pharmaceutical company,5409 N Jim Miller Rd #217 · In Jim Miller Center · (972) 285-1444,5409 N Jim Miller Rd #217 , In Jim Miller Center 
Ebere Enebeli,Pharmacy,2501 N Field St · In CVS,2501 N Field St , In CVS
CVS Photo,Passport photo processor,15105 Preston Rd · (972) 763-1527,15105 Preston Rd , (972) 763-1527
CVS,Drug store,2350 N Fitzhugh Ave · (214) 515-5574,2350 N Fitzhugh Ave , (214) 515-5574
Health Mart,Pharmacy,2603 Oak Lawn Ave · (469) 248-7445,2603 Oak Lawn Ave , (469) 248-7445
Mockingbird Pharma,Pharmacy,6060 N Central Expy Suite 770 · In 6060 Central · (972) 591-0598,6060 N Central Expy Suite 770 , In 6060 Central 
Walmart Supercenter,Department store,15220 Montfort Rd · (972) 233-0438,15220 Montfort Rd , (972) 233-0438
Amy Lee,Pharmacy,3410 Worth St Ste 240 · (214) 820-8400,3410 Worth St Ste 240 , (214) 820-8400
Howard Klein,Pharmacy,4702 N Jim Miller Rd · (214) 388-4951,4702 N Jim Miller Rd , (214) 388-4951
ReNue Hampton Pharmacy,Pharmacy,2701 S Hampton Rd · (972) 707-8248,2701 S Hampton Rd , (972) 707-8248
Landmark Infusion,Pharmacy,"Irving, TX · (866) 388-3883","Irving, TX ", (866) 388-3883
Link Pharmacy,Pharmacy,"Dallas, TX · (945) 910-5465","Dallas, TX ", (945) 910-5465
ReNue Hampton Pharmacy,Pharmacy,2701 S Hampton Rd · (972) 707-8248,2701 S Hampton Rd , (972) 707-8248
Alan Roach,Pharmacy,"METHODIST HOSPITAL OF DALLAS, 1441 N Beckley Ave · (214) 947-2400","METHODIST HOSPITAL OF DALLAS, 1441 N Beckley Ave ", (214) 947-2400
Fiesta Pharmacy,Pharmacy,2947 S Buckner Blvd · (214) 275-8066,2947 S Buckner Blvd , (214) 275-8066
Salud's Pharmacy,Pharmacy,611 Jefferson Blvd Ste. 500 · (214) 946-3886,611 Jefferson Blvd Ste. 500 , (214) 946-3886
Elizabeth Ragsdale,Pharmacy,4702 N Jim Miller Rd · (214) 388-4951,4702 N Jim Miller Rd , (214) 388-4951
Bayo's Pharmacy,Pharmacy,2100 W Colorado Blvd · (214) 948-9441,2100 W Colorado Blvd , (214) 948-9441
Recept Pharmacy,Pharmacy,2225 Vatican Ln · (214) 330-6000,2225 Vatican Ln , (214) 330-6000
CVS,Drug store,4202 Ross Ave · (214) 584-2480,4202 Ross Ave , (214) 584-2480
Dallas Doctors office,Pharmacy,8215 Westchester Dr,8215 Westchester Dr,8215 Westchester Dr
CVS Pharmacy,Pharmacy,150 E Illinois Ave · (214) 944-5857,150 E Illinois Ave , (214) 944-5857
Patient1st Pharmacy Dallas,Pharmacy,"Irving, TX · In Assurance America · (972) 600-8216","Irving, TX ", In Assurance America 
Rite Care Pharmacy,Pharmacy,9415 Bruton Rd Suite 3103 · (214) 421-2210,9415 Bruton Rd Suite 3103 , (214) 421-2210
Sophia Lee,Pharmacy,4702 N Jim Miller Rd · (214) 388-4951,4702 N Jim Miller Rd , (214) 388-4951
Texas Star Pharmacy,Pharmacy,"Plano, TX · In Crossroads shopping center · (972) 519-8475","Plano, TX ", In Crossroads shopping center 
CVS Pharmacy,Pharmacy,5050 S Lancaster Rd · (214) 375-8924,5050 S Lancaster Rd , (214) 375-8924
Health Mart Pharmacy,Pharmacy,"Sunnyvale, TX","Sunnyvale, TX","Sunnyvale, TX"
Walgreens Pharmacy,Pharmacy,"Irving, TX · (972) 594-1648","Irving, TX ", (972) 594-1648
CVS,Drug store,4207 Lemmon Ave · (214) 528-0328,4207 Lemmon Ave , (214) 528-0328
Walmart Pharmacy,Pharmacy,13739 N Central Expy · (972) 656-2501,13739 N Central Expy , (972) 656-2501
Target,Department store,13131 Montfort Dr · (972) 239-8161,13131 Montfort Dr , (972) 239-8161
Landmark Infusion,Pharmacy,"Irving, TX · (866) 388-3883","Irving, TX ", (866) 388-3883
CVS,Drug store,"Dallas, TX · (972) 392-9634","Dallas, TX ", (972) 392-9634
CVS Photo,Passport photo processor,14041 Noel Rd · (972) 387-8664,14041 Noel Rd , (972) 387-8664
SUNNYVALE PHARMACY,Pharmacy,"Sunnyvale, TX · (972) 290-0341","Sunnyvale, TX ", (972) 290-0341
Spring Creek Pharmacy,Pharmacy,"Plano, TX · (972) 517-7900","Plano, TX ", (972) 517-7900
Carie Boyd’s Prescription Shop,Pharmacy,"Irving, TX · In Freeport Business Park · (817) 282-9376","Irving, TX ", In Freeport Business Park 
Mesquite Pharmacy,Pharmacy,"Mesquite, TX · (972) 285-1761","Mesquite, TX ", (972) 285-1761
Garland Independent Pharmacy,Pharmacy,"Garland, TX · (972) 864-1110","Garland, TX ", (972) 864-1110
Metrocare Westmoreland Adult Mental Health Clinic & Pharmacy,Pharmacy,1350 N Westmoreland Rd · (214) 330-0036,1350 N Westmoreland Rd , (214) 330-0036
Grapevine Drug RX,Pharmacy,"Grapevine, TX · (817) 481-5780","Grapevine, TX ", (817) 481-5780
Ben Franklin Apothecary.,Pharmacy,"Duncanville, TX · (972) 298-4936","Duncanville, TX ", (972) 298-4936
INDEPENDENCE PHARMACY,Pharmacy,"Frisco, TX · (469) 885-9100","Frisco, TX ", (469) 885-9100
Adams Pharmacy,Pharmacy,"DeSoto, TX · (972) 223-0444","DeSoto, TX ", (972) 223-0444
Super Value Pharmacy,Pharmacy,"Euless, TX · (817) 283-5308","Euless, TX ", (817) 283-5308
Quality Care Pharmacy and Compounding,Pharmacy,"Wylie, TX · In Medical Offices · (972) 442-5333","Wylie, TX ", In Medical Offices 
COVID-19 Drive-Thru Testing at Walgreens,Pharmacy,"Mesquite, TX · (972) 686-8913","Mesquite, TX ", (972) 686-8913
MidCities Pharmacy,Pharmacy,"Hurst, TX · (817) 605-3500","Hurst, TX ", (817) 605-3500
Bowen Pharmacy,Pharmacy,"Arlington, TX · (817) 918-4900","Arlington, TX ", (817) 918-4900
Beaker Pharmacy,Pharmacy,"McKinney, TX · (972) 972-4700","McKinney, TX ", (972) 972-4700
Walmart Supercenter,Department store,"Plano, TX · (972) 931-9846","Plano, TX ", (972) 931-9846
"Village Lane Apothecary, LLC",Pharmacy,"Colleyville, TX · In Colleyville Plaza · (817) 717-2000","Colleyville, TX ", In Colleyville Plaza 
kk's pharmacy,Pharmacy,"Mansfield, TX · (817) 453-5700","Mansfield, TX ", (817) 453-5700
Link Pharmacy,Pharmacy,"Dallas, TX · (945) 910-5465","Dallas, TX ", (945) 910-5465
CVS Pharmacy,Pharmacy,"Addison, TX · (214) 414-0026","Addison, TX ", (214) 414-0026
Tom Thumb,Grocery store,2380 N Field St · Near the Perot Museum of Nature and Science · (972) 454-5045,2380 N Field St , Near the Perot Museum of Nature and Science 
Redbox,Movie rental kiosk,4610 Frankford Rd · In CVS Pharmacy · (866) 733-2693,4610 Frankford Rd , In CVS Pharmacy 
Texas Neurology,Pharmacy,6080 N Central Expy Ste 100 · (214) 827-3610,6080 N Central Expy Ste 100 , (214) 827-3610
MedCore Pharmacy,Pharmacy,2600 N Stemmons Fwy · (469) 333-8660,2600 N Stemmons Fwy , (469) 333-8660
